[ {"name": "STARLINK-34090", "line1": "1 63976U 25099AA  26200.23540074  .00005900  00000+0  22372-3 0  9993", "line2": "2 63976  43.0012 149.9233 0000875 266.6354  93.4397 15.27584928 67409"}, {"name": "STARLINK-34105", "line1": "1 63977U 25099AB  26200.23283224  .00008343  00000+0  31216-3 0  9996", "line2": "2 63977  43.0010 149.9018 0001255 277.8591  82.2118 15.27600164 67407"}, {"name": "STARLINK-33642", "line1": "1 63978U 25099AC  26200.29050659  .00004079  00000+0  15763-3 0  9998", "line2": "2 63978  42.9990 149.4707 0001016 267.9562  92.1173 15.27583586 67416"}, {"name": "STARLINK-34045", "line1": "1 63979U 25099AD  26200.28665237  .00005966  00000+0  22611-3 0  9998", "line2": "2 63979  42.9998 149.4405 0000939 264.0527  96.0218 15.27586606 67411"}, {"name": "STARLINK-33871", "line1": "1 63994U 25101A   26200.06484250  .00005960  00000+0  22589-3 0  9997", "line2": "2 63994  43.0015 336.3487 0001321 278.4801  81.5901 15.27586597 67076"}, {"name": "STARLINK-34154", "line1": "1 63995U 25101B   26199.77502790  .00006485  00000+0  24492-3 0  9991", "line2": "2 63995  43.0026 337.6150 0001672 267.4122  92.6538 15.27588347 67101"}, {"name": "STARLINK-34158", "line1": "1 63996U 25101C   26199.70194007  .00008248  00000+0  30885-3 0  9995", "line2": "2 63996  43.0021 337.9643 0001218 278.1916  81.8798 15.27587238 67097"}, {"name": "STARLINK-34165", "line1": "1 63997U 25101D   26200.08268300  .00005842  00000+0  22170-3 0  9993", "line2": "2 63997  43.0018 335.6188 0001431 283.8655  76.2037 15.27574674 67154"}, {"name": "STARLINK-34150", "line1": "1 63998U 25101E   26199.66481560  .00006934  00000+0  26120-3 0  9992", "line2": "2 63998  43.0009 338.5080 0001469 268.4082  91.6601 15.27587222 67085"}, {"name": "STARLINK-34169", "line1": "1 63999U 25101F   26200.09298511  .00004494  00000+0  17281-3 0  9992", "line2": "2 63999  43.0037 335.7007 0001311 261.4326  98.6377 15.27565274 67153"}, {"name": "STARLINK-34152", "line1": "1 64000U 25101G   26200.09938671  .00006357  00000+0  24027-3 0  9990", "line2": "2 64000  43.0047 335.7446 0001943 274.8317  85.2313 15.27589216 67158"}, {"name": "STARLINK-33927", "line1": "1 64001U 25101H   26200.07383796  .00003196  00000+0  12561-3 0  9999", "line2": "2 64001  43.0002 336.4168 0001179 269.2736  90.7981 15.27581818 67144"}, {"name": "STARLINK-33898", "line1": "1 64002U 25101J   26199.73919804  .00006470  00000+0  24442-3 0  9994", "line2": "2 64002  43.0014 338.2079 0001730 278.2459  81.8196 15.27581973 67099"}, {"name": "STARLINK-33928", "line1": "1 64003U 25101K   26199.81600055  .00009740  00000+0  36289-3 0  9994", "line2": "2 64003  43.0018 337.0573 0001290 273.2353  86.8351 15.27591115 67119"}, {"name": "STARLINK-33758", "line1": "1 64004U 25101L   26199.78659582  .00004923  00000+0  18829-3 0  9998", "line2": "2 64004  43.0023 337.6949 0001593 266.5071  93.5598 15.27582979 67102"}, {"name": "STARLINK-33936", "line1": "1 64005U 25101M   26200.09681920  .00006565  00000+0  24781-3 0  9995", "line2": "2 64005  43.0021 335.7264 0001647 270.5909  89.4754 15.27586907 67153"}, {"name": "STARLINK-33931", "line1": "1 64006U 25101N   26200.07882721  .00009701  00000+0  36141-3 0  9994", "line2": "2 64006  43.0032 335.5884 0001815 273.5057  86.5587 15.27596902 67176"}, {"name": "STARLINK-33759", "line1": "1 64007U 25101P   26199.69679066  .00007235  00000+0  27209-3 0  9991", "line2": "2 64007  43.0029 337.8809 0001277 263.5534  96.5172 15.27588430 67095"}, {"name": "STARLINK-34163", "line1": "1 64008U 25101Q   26199.72636454  .00014865  00000+0  54831-3 0  9998", "line2": "2 64008  43.0004 338.1049 0001359 262.1156  97.9541 15.27598936 67092"}, {"name": "STARLINK-34077", "line1": "1 64009U 25101R   26200.08782143  .00013524  00000+0  50018-3 0  9992", "line2": "2 64009  43.0086 335.6548 0002884 269.9059  90.1462 15.27570958 67158"}, {"name": "STARLINK-34113", "line1": "1 64010U 25101S   26199.79944612  .00006749  00000+0  25455-3 0  9998", "line2": "2 64010  43.0011 337.7941 0001366 274.1558  85.9137 15.27580100 67100"}, {"name": "STARLINK-34193", "line1": "1 64011U 25101T   26199.73277632  .00007578  00000+0  28453-3 0  9996", "line2": "2 64011  42.9976 338.1528 0000848 316.8285  43.2500 15.27588313 67093"}, {"name": "STARLINK-34078", "line1": "1 64012U 25101U   26199.75832372  .00006243  00000+0  23616-3 0  9991", "line2": "2 64012  43.0019 337.4797 0001312 267.4572  92.6129 15.27585455 67102"}, {"name": "STARLINK-34182", "line1": "1 64013U 25101V   26199.73582483  .00005375  00000+0  20468-3 0  9992", "line2": "2 64013  43.0008 334.7122 0001323 276.0437  84.0264 15.27585572 67139"}, {"name": "STARLINK-34192", "line1": "1 64014U 25101W   26200.06869698  .00005894  00000+0  22348-3 0  9993", "line2": "2 64014  42.9977 336.3719 0001320 269.6339  90.4362 15.27584903 67147"}, {"name": "STARLINK-34093", "line1": "1 64015U 25101X   26199.76475077  .00005909  00000+0  22392-3 0  9998", "line2": "2 64015  43.0027 337.5273 0001355 255.4076 104.6625 15.27601862 67103"}, {"name": "STARLINK-34016", "line1": "1 64016U 25101Y   26200.08653861  .00005947  00000+0  22538-3 0  9990", "line2": "2 64016  43.0014 335.6410 0001366 280.0256  80.0441 15.27588652 67157"}, {"name": "STARLINK-34161", "line1": "1 64017U 25101Z   26200.09553955  .00003765  00000+0  14624-3 0  9998", "line2": "2 64017  43.0035 335.7075 0000592 311.2491  48.8310 15.27583367 67152"}, {"name": "STARLINK-34162", "line1": "1 64018U 25101AA  26199.78145070  .00005668  00000+0  21530-3 0  9995", "line2": "2 64018  43.0035 337.6505 0002054 266.0141  94.0476 15.27586692 67101"}, {"name": "STARLINK-34155", "line1": "1 64019U 25101AB  26199.78916019  .00009941  00000+0  37017-3 0  9990", "line2": "2 64019  43.0024 337.7098 0002169 275.5572  84.5033 15.27590141 67105"}]