OBJECT_NAME,OBJECT_ID,EPOCH,MEAN_MOTION,ECCENTRICITY,INCLINATION,RA_OF_ASC_NODE,ARG_OF_PERICENTER,MEAN_ANOMALY,EPHEMERIS_TYPE,CLASSIFICATION_TYPE,NORAD_CAT_ID,ELEMENT_SET_NO,REV_AT_EPOCH,BSTAR,MEAN_MOTION_DOT,MEAN_MOTION_DDOT
STARLINK-34090,2025-099AA,2026-07-19T05:38:58.623936,15.27584928,.00008757,43.0012,149.9233,266.6354,93.4397,0,U,63976,999,6740,.22372127E-3,.59E-4,0
STARLINK-34105,2025-099AB,2026-07-19T05:35:16.705536,15.27600164,.00012556,43.0010,149.9018,277.8591,82.2118,0,U,63977,999,6740,.31215738E-3,.8343E-4,0
STARLINK-33642,2025-099AC,2026-07-19T06:58:19.769376,15.27583586,.00010166,42.9990,149.4707,267.9562,92.1173,0,U,63978,999,6741,.15763324E-3,.4079E-4,0
STARLINK-34045,2025-099AD,2026-07-19T06:52:46.764768,15.27586606,.00009394,42.9998,149.4405,264.0527,96.0218,0,U,63979,999,6741,.2261065E-3,.5966E-4,0
STARLINK-33871,2025-101A,2026-07-19T01:33:22.392000,15.27586597,.0001321,43.0015,336.3487,278.4801,81.5901,0,U,63994,999,6707,.22589441E-3,.596E-4,0
STARLINK-34154,2025-101B,2026-07-18T18:36:02.410560,15.27588347,.0001672,43.0026,337.6150,267.4122,92.6538,0,U,63995,999,6710,.24492234E-3,.6485E-4,0
STARLINK-34158,2025-101C,2026-07-18T16:50:47.622048,15.27587238,.00012183,43.0021,337.9643,278.1916,81.8798,0,U,63996,999,6709,.30885279E-3,.8248E-4,0
STARLINK-34165,2025-101D,2026-07-19T01:59:03.811200,15.27574674,.00014312,43.0018,335.6188,283.8655,76.2037,0,U,63997,999,6715,.22169611E-3,.5842E-4,0
STARLINK-34150,2025-101E,2026-07-18T15:57:20.067840,15.27587222,.00014691,43.0009,338.5080,268.4082,91.6601,0,U,63998,999,6708,.26119749E-3,.6934E-4,0
STARLINK-34169,2025-101F,2026-07-19T02:13:53.913504,15.27565274,.00013112,43.0037,335.7007,261.4326,98.6377,0,U,63999,999,6715,.17281414E-3,.4494E-4,0
STARLINK-34152,2025-101G,2026-07-19T02:23:07.011744,15.27589216,.00019431,43.0047,335.7446,274.8317,85.2313,0,U,64000,999,6715,.24027381E-3,.6357E-4,0
STARLINK-33927,2025-101H,2026-07-19T01:46:19.599744,15.27581818,.00011797,43.0002,336.4168,269.2736,90.7981,0,U,64001,999,6714,.12561289E-3,.3196E-4,0
STARLINK-33898,2025-101J,2026-07-18T17:44:26.710656,15.27581973,.00017301,43.0014,338.2079,278.2459,81.8196,0,U,64002,999,6709,.24442286E-3,.647E-4,0
STARLINK-33928,2025-101K,2026-07-18T19:35:02.447520,15.27591115,.00012904,43.0018,337.0573,273.2353,86.8351,0,U,64003,999,6711,.36288568E-3,.974E-4,0
STARLINK-33758,2025-101L,2026-07-18T18:52:41.878848,15.27582979,.0001593,43.0023,337.6949,266.5071,93.5598,0,U,64004,999,6710,.18829403E-3,.4923E-4,0
STARLINK-33936,2025-101M,2026-07-19T02:19:25.178880,15.27586907,.00016474,43.0021,335.7264,270.5909,89.4754,0,U,64005,999,6715,.24781319E-3,.6565E-4,0
STARLINK-33931,2025-101N,2026-07-19T01:53:30.670944,15.27596902,.00018155,43.0032,335.5884,273.5057,86.5587,0,U,64006,999,6717,.36140896E-3,.9701E-4,0
STARLINK-33759,2025-101P,2026-07-18T16:43:22.713024,15.27588430,.00012777,43.0029,337.8809,263.5534,96.5172,0,U,64007,999,6709,.27209428E-3,.7235E-4,0
STARLINK-34163,2025-101Q,2026-07-18T17:25:57.896256,15.27598936,.00013595,43.0004,338.1049,262.1156,97.9541,0,U,64008,999,6709,.54830812E-3,.14865E-3,0
STARLINK-34077,2025-101R,2026-07-19T02:06:27.771552,15.27570958,.00028843,43.0086,335.6548,269.9059,90.1462,0,U,64009,999,6715,.50018081E-3,.13524E-3,0
STARLINK-34113,2025-101S,2026-07-18T19:11:12.144768,15.27580100,.00013661,43.0011,337.7941,274.1558,85.9137,0,U,64010,999,6710,.25454828E-3,.6749E-4,0
STARLINK-34193,2025-101T,2026-07-18T17:35:11.874048,15.27588313,.0000848,42.9976,338.1528,316.8285,43.2500,0,U,64011,999,6709,.28453335E-3,.7578E-4,0
STARLINK-34078,2025-101U,2026-07-18T18:11:59.169408,15.27585455,.00013128,43.0019,337.4797,267.4572,92.6129,0,U,64012,999,6710,.23616279E-3,.6243E-4,0
STARLINK-34182,2025-101V,2026-07-18T17:39:35.265312,15.27585572,.00013231,43.0008,334.7122,276.0437,84.0264,0,U,64013,999,6713,.2046786E-3,.5375E-4,0
STARLINK-34192,2025-101W,2026-07-19T01:38:55.419072,15.27584903,.00013207,42.9977,336.3719,269.6339,90.4362,0,U,64014,999,6714,.22348387E-3,.5894E-4,0
STARLINK-34093,2025-101X,2026-07-18T18:21:14.466528,15.27601862,.00013556,43.0027,337.5273,255.4076,104.6625,0,U,64015,999,6710,.2239211E-3,.5909E-4,0
STARLINK-34016,2025-101Y,2026-07-19T02:04:36.935904,15.27588652,.00013665,43.0014,335.6410,280.0256,80.0441,0,U,64016,999,6715,.22538328E-3,.5947E-4,0
STARLINK-34161,2025-101Z,2026-07-19T02:17:34.617120,15.27583367,.00005923,43.0035,335.7075,311.2491,48.8310,0,U,64017,999,6715,.14624304E-3,.3765E-4,0
STARLINK-34162,2025-101AA,2026-07-18T18:45:17.340480,15.27586692,.00020548,43.0035,337.6505,266.0141,94.0476,0,U,64018,999,6710,.21530169E-3,.5668E-4,0
STARLINK-34155,2025-101AB,2026-07-18T18:56:23.440416,15.27590141,.00021695,43.0024,337.7098,275.5572,84.5033,0,U,64019,999,6710,.37016614E-3,.9941E-4,0
